STARLINK-3508           
1 51862U 22022L   26068.06240968  .00000844  00000+0  71122-4 0  9999
2 51862  53.2183  11.9375 0001424  91.4978 268.6178 15.08834436223075
LEMUR-2-SIERRINI        
1 60579U 24149DR  26068.80891719  .00014386  00000+0  92040-3 0  9991
2 60579  97.6873 151.1225 0006580 147.8458 212.3173 15.08682764 85461
